NORAD_CAT_ID,OBJECT_NAME,OBJECT_TYPE,EPOCH,MEAN_MOTION,ECCENTRICITY,INCLINATION,RA_OF_ASC_NODE,ARG_OF_PERICENTER,MEAN_ANOMALY,BSTAR,MEAN_MOTION_DOT,MEAN_MOTION_DDOT,TLE_LINE0,TLE_LINE1,TLE_LINE2,SEMIMAJOR_AXIS,PERIOD,APOGEE,PERIGEE,DECAYED
54055.0,STARLINK-5158,PAYLOAD,2022-12-19 16:14:50,15.0882642,0.0001747,53.2155,223.6085,54.7224,305.3932,0.00036183,5.473e-05,0.0,0 STARLINK-5158,1 54055U 22136E   22353.67696930  .00005473  00000-0  36183-3 0  9997,2 54055  53.2155 223.6085 0001747  54.7224 305.3932 15.08826420  9304,6917.922,95.438,540.995,538.578,0.0
54055.0,STARLINK-5158,PAYLOAD,2022-12-20 00:11:46,15.08826188,0.0001710999999999,53.2155,222.1217,55.9715,304.1439,0.00032968,4.961e-05,0.0,0 STARLINK-5158,1 54055U 22136E   22354.00817388  .00004961  00000-0  32968-3 0  9995,2 54055  53.2155 222.1217 0001711  55.9715 304.1439 15.08826188  9832,6917.9230000000025,95.438,540.971,538.604,0.0
54055.0,STARLINK-5158,PAYLOAD,2022-12-20 20:51:46,15.08846441,0.0001662,53.2153,218.2557,53.8881,306.2265,7.2962e-05,8.74e-06,0.0,0 STARLINK-5158,1 54055U 22136E   22354.86928860  .00000874  00000-0  72962-4 0  9995,2 54055  53.2153 218.2557 0001662  53.8881 306.2265 15.08846441  9967,6917.861,95.437,540.875,538.576,0.0
54055.0,STARLINK-5158,PAYLOAD,2022-12-21 07:59:29,15.08834461,0.0001646,53.2152,216.174,54.5323,305.5822,-5.7962e-05,-1.21e-05,0.0,0 STARLINK-5158,1 54055U 22136E   22355.33298004 -.00001210  00000-0 -57962-4 0  9998,2 54055  53.2152 216.1740 0001646  54.5323 305.5822 15.08834461 10038,6917.897,95.438,540.901,538.624,0.0
54055.0,STARLINK-5158,PAYLOAD,2022-12-21 23:53:20,15.08839524,0.0001813,53.2155,213.2003,56.9413,303.1753,2.2791e-05,7.5e-07,0.0,0 STARLINK-5158,1 54055U 22136E   22355.99537571  .00000075  00000-0  22791-4 0  9993,2 54055  53.2155 213.2003 0001813  56.9413 303.1753 15.08839524 10136,6917.882,95.438,541.001,538.493,0.0
54055.0,STARLINK-5158,PAYLOAD,2022-12-22 07:50:15,15.08844016,0.0001866,53.2154,211.7135,58.6668,301.4506,4.664e-05,4.54e-06,0.0,0 STARLINK-5158,1 54055U 22136E   22356.32657048  .00000454  00000-0  46640-4 0  9993,2 54055  53.2154 211.7135 0001866  58.6668 301.4506 15.08844016  9703,6917.868,95.437,541.024,538.442,0.0
54055.0,STARLINK-5158,PAYLOAD,2022-12-22 22:08:43,15.08847373,0.0001886,53.2152,209.0372,60.8784,299.2397,0.00011007,1.464e-05,0.0,0 STARLINK-5158,1 54055U 22136E   22356.92272688  .00001464  00000-0  11007-3 0  9992,2 54055  53.2152 209.0372 0001886  60.8784 299.2397 15.08847373 10275,6917.858,95.437,541.028,538.418,0.0
54055.0,STARLINK-5158,PAYLOAD,2022-12-23 14:02:36,15.08831039,0.0001906,53.2158,206.0628,60.0413,300.0768,7.3334e-05,8.79e-06,0.0,0 STARLINK-5158,1 54055U 22136E   22357.58514034  .00000879  00000-0  73334-4 0  9990,2 54055  53.2158 206.0628 0001906  60.0413 300.0768 15.08831039 10372,6917.908,95.438,541.091,538.4540000000002,0.0
54055.0,STARLINK-5158,PAYLOAD,2022-12-23 20:24:08,15.08837438,0.0002022,53.2152,204.8742,60.6047,299.5146,8.1894e-05,1.015e-05,0.0,0 STARLINK-5158,1 54055U 22136E   22357.85009732  .00001015  00000-0  81894-4 0  9997,2 54055  53.2152 204.8742 0002022  60.6047 299.5146 15.08837438  9939,6917.888000000001,95.438,541.1519999999998,538.354,0.0
54055.0,STARLINK-5158,PAYLOAD,2022-12-23 23:34:54,15.08839664,0.0001859,53.2157,204.2788,58.7946,301.3228,6.3772e-05,7.27e-06,0.0,0 STARLINK-5158,1 54055U 22136E   22357.98257595  .00000727  00000-0  63772-4 0  9997,2 54055  53.2157 204.2788 0001859  58.7946 301.3228 15.08839664 10434,6917.880999999999,95.438,541.0319999999998,538.46,0.0
54055.0,STARLINK-5158,PAYLOAD,2022-12-24 07:31:50,15.08842515,0.000196,53.216,202.7924,60.6821,299.4367,6.5576e-05,7.56e-06,0.0,0 STARLINK-5158,1 54055U 22136E   22358.31377386  .00000756  00000-0  65576-4 0  9992,2 54055  53.2160 202.7924 0001960  60.6821 299.4367 15.08842515 10003,6917.873000000001,95.437,541.094,538.382,0.0
54055.0,STARLINK-5158,PAYLOAD,2022-12-24 20:14:54,15.08841728,0.0001955,53.216,200.4134,61.5895,298.5294,0.00014387,2.002e-05,0.0,0 STARLINK-5158,1 54055U 22136E   22358.84368894  .00002002  00000-0  14387-3 0  9993,2 54055  53.2160 200.4134 0001955  61.5895 298.5294 15.08841728 10088,6917.875,95.437,541.0930000000002,538.388,0.0
54055.0,STARLINK-5158,PAYLOAD,2022-12-24 23:25:40,15.088429,0.0001962,53.2159,199.8186,61.9317,298.1874,0.00015105,2.117e-05,0.0,0 STARLINK-5158,1 54055U 22136E   22358.97616806  .00002117  00000-0  15105-3 0  9992,2 54055  53.2159 199.8186 0001962  61.9317 298.1874 15.08842900 10583,6917.871999999999,95.437,541.094,538.379,0.0
54055.0,STARLINK-5158,PAYLOAD,2022-12-25 20:05:42,15.08834475,0.0001997,53.2158,195.9528,63.5235,296.5962,2.7845e-05,1.55e-06,0.0,0 STARLINK-5158,1 54055U 22136E   22359.83729763  .00000155  00000-0  27845-4 0  9990,2 54055  53.2158 195.9528 0001997  63.5235 296.5962 15.08834475 10717,6917.897,95.438,541.144,538.381,0.0
54055.0,STARLINK-5158,PAYLOAD,2022-12-26 13:34:58,15.08824684,0.000182,53.2157,192.6818,68.1509,291.9677,-0.00011671,-2.144e-05,0.0,0 STARLINK-5158,1 54055U 22136E   22360.56595271 -.00002144  00000-0 -11671-3 0  9998,2 54055  53.2157 192.6818 0001820  68.1509 291.9677 15.08824684 10344,6917.927,95.439,541.0509999999998,538.533,0.0
54055.0,STARLINK-5158,PAYLOAD,2022-12-27 05:28:49,15.08826935,0.0001918,53.2152,189.7078,64.5725,295.5465,-7.9515e-05,-1.553e-05,0.0,0 STARLINK-5158,1 54055U 22136E   22361.22835588 -.00001553  00000-0 -79515-4 0  9995,2 54055  53.2152 189.7078 0001918  64.5725 295.5465 15.08826935 10449,6917.92,95.438,541.112,538.4580000000002,0.0
54055.0,STARLINK-5158,PAYLOAD,2022-12-27 13:25:46,15.08812491,0.0001866,53.2163,188.2224,70.4588,289.6605,-8.7346e-05,-1.677e-05,0.0,0 STARLINK-5158,1 54055U 22136E   22361.55956964 -.00001677  00000-0 -87346-4 0  9991,2 54055  53.2163 188.2224 0001866  70.4588 289.6605 15.08812491 10973,6917.964,95.439,541.12,538.539,0.0
54055.0,STARLINK-5158,PAYLOAD,2022-12-27 19:47:21,15.08791836,0.0001718,53.2148,187.0321,71.9465,288.1714,-0.00024996,-4.259e-05,0.0,0 STARLINK-5158,1 54055U 22136E   22361.82455285 -.00004259  00000-0 -24996-3 0  9991,2 54055  53.2148 187.0321 0001718  71.9465 288.1714 15.08791836 10533,6918.028,95.441,541.081,538.7040000000002,0.0
54055.0,STARLINK-5158,PAYLOAD,2022-12-27 22:58:04,15.08831221,0.0001857,53.2154,186.4376,65.5953,294.5232,0.00010416,1.3699999999999998e-05,0.0,0 STARLINK-5158,1 54055U 22136E   22361.95700188  .00001370  00000-0  10416-3 0  9991,2 54055  53.2154 186.4376 0001857  65.5953 294.5232 15.08831221 11033,6917.906999999997,95.438,541.057,538.488,0.0
54055.0,STARLINK-5158,PAYLOAD,2022-12-28 05:19:37,15.08835536,0.0001679,53.216,185.2471,69.7651,290.3522,0.00012302,1.67e-05,0.0,0 STARLINK-5158,1 54055U 22136E   22362.22195955  .00001670  00000-0  12302-3 0  9991,2 54055  53.2160 185.2471 0001679  69.7651 290.3522 15.08835536 10595,6917.894,95.438,540.9209999999998,538.5980000000002,0.0
54055.0,STARLINK-5158,PAYLOAD,2022-12-28 14:51:56,15.08830705,0.0001888,53.2145,183.4637,70.8078,289.3118,0.00019418,2.803e-05,0.0,0 STARLINK-5158,1 54055U 22136E   22362.61940494  .00002803  00000-0  19418-3 0  9994,2 54055  53.2145 183.4637 0001888  70.8078 289.3118 15.08830705 10659,6917.909000000002,95.438,541.08,538.4680000000002,0.0
54055.0,STARLINK-5158,PAYLOAD,2022-12-29 05:10:24,15.08839069,0.0001811999999999,53.2151,180.7867,71.8037,288.3152,0.00021312,3.105e-05,0.0,0 STARLINK-5158,1 54055U 22136E   22363.21556190  .00003105  00000-0  21312-3 0  9999,2 54055  53.2151 180.7867 0001812  71.8037 288.3152 15.08839069 11227,6917.8830000000025,95.438,541.002,538.495,0.0
54055.0,STARLINK-5158,PAYLOAD,2022-12-30 11:22:44,15.08803103,0.0001672,53.2152,175.1366,82.3782,277.74,0.00093098,0.00014545,0.0,0 STARLINK-5158,1 54055U 22136E   22364.47412118  .00014545  00000-0  93098-3 0  9999,2 54055  53.2152 175.1366 0001672  82.3782 277.7400 15.08803103 11417,6917.993,95.44,541.015,538.701,0.0
54055.0,STARLINK-5158,PAYLOAD,2022-12-30 17:44:14,15.08867232,0.0001784,53.2153,173.947,74.5347,285.5842,0.00015356,2.158e-05,0.0,0 STARLINK-5158,1 54055U 22136E   22364.73906007  .00002158  00000-0  15356-3 0  9991,2 54055  53.2153 173.9470 0001784  74.5347 285.5842 15.08867232 11458,6917.797,95.436,540.896,538.428,0.0
54055.0,STARLINK-5158,PAYLOAD,2022-12-31 04:51:57,15.08856465,0.0001797,53.2153,171.8654,74.513,285.6061,4.5357e-05,4.34e-06,0.0,0 STARLINK-5158,1 54055U 22136E   22365.20274351  .00000434  00000-0  45357-4 0  9994,2 54055  53.2153 171.8654 0001797  74.5130 285.6061 15.08856465 11521,6917.83,95.437,540.938,538.452,0.0
54055.0,STARLINK-5158,PAYLOAD,2022-12-31 11:13:28,15.08861664,0.0001759,53.2149,170.6752,74.9629,285.1557,6.7062e-05,7.8e-06,0.0,0 STARLINK-5158,1 54055U 22136E   22365.46769572  .00000780  00000-0  67062-4 0  9997,2 54055  53.2149 170.6752 0001759  74.9629 285.1557 15.08861664 11080,6917.814,95.436,540.896,538.462,0.0
54055.0,STARLINK-5158,PAYLOAD,2022-12-31 17:35:01,15.08863643,0.0001864,53.2154,169.4862,72.6317,287.4879,7.5792e-05,9.19e-06,0.0,0 STARLINK-5158,1 54055U 22136E   22365.73265070  .00000919  00000-0  75792-4 0  9994,2 54055  53.2154 169.4862 0001864  72.6317 287.4879 15.08863643 11126,6917.808000000001,95.436,540.9630000000002,538.384,0.0
54055.0,STARLINK-5158,PAYLOAD,2023-01-01 04:42:43,15.08852622,0.0001592,53.2156,167.4054,71.4177,288.6988,-5.5842e-05,-1.177e-05,0.0,0 STARLINK-5158,1 54055U 22136E   23001.19633596 -.00001177  00000-0 -55842-4 0  9997,2 54055  53.2156 167.4054 0001592  71.4177 288.6988 15.08852622 11677,6917.842,95.437,540.808,538.605,0.0
54055.0,STARLINK-5158,PAYLOAD,2023-01-01 11:04:15,15.08851226,0.0001739,53.2154,166.2152,75.4978,284.6207,-9.2922e-05,-1.767e-05,0.0,0 STARLINK-5158,1 54055U 22136E   23001.46129583 -.00001767  00000-0 -92922-4 0  9998,2 54055  53.2154 166.2152 0001739  75.4978 284.6207 15.08851226 11238,6917.846,95.437,540.914,538.508,0.0
